{"type": "FeatureCollection", "features": [ {"type": "Feature", "properties": {"norad_id": 66880, "name": "STARLINK-35844", "group": "last-30-days", "lat": -12.613821858012086, "lon": -171.08660578626467, "alt_km": 417.4247433990031, "timestamp": "2025-12-27T18:38:02.204969+00:00", "meta": {"OBJECT_NAME": "STARLINK-35844", "OBJECT_ID": "2025-283C", "EPOCH": "2025-12-27T12:00:02.000160", "MEAN_MOTION": 15.51826705, "ECCENTRICITY": 0.0001458, "INCLINATION": 53.1597, "RA_OF_ASC_NODE": 0.5808, "ARG_OF_PERICENTER": 66.4071, "MEAN_ANOMALY": 24.8994, "EPHEMERIS_TYPE": 0, "CLASSIFICATION_TYPE": "U", "NORAD_CAT_ID": 66880, "ELEMENT_SET_NO": 999, "REV_AT_EPOCH": 480, "BSTAR": -0.032897, "MEAN_MOTION_DOT": -0.01779119, "MEAN_MOTION_DDOT": 0}, "tle": {"line1": "1 66880U 25283C   25361.50002315 -.01779119  00000+0 -32897-1 0  9997", "line2": "2 66880  53.1597   0.5808 0001458  66.4071  24.8994 15.51826705  4801"}}, "geometry": {"type": "Point", "coordinates": [-171.08660578626467, -12.613821858012086]}}, {"type": "Feature", "properties": {"norad_id": 66881, "name": "STARLINK-35860", "group": "last-30-days", "lat": -15.620867535189987, "lon": -168.65451804450484, "alt_km": 417.6066383969719, "timestamp": "2025-12-27T18:38:02.204979+00:00", "meta": {"OBJECT_NAME": "STARLINK-35860", "OBJECT_ID": "2025-283D", "EPOCH": "2025-12-27T12:00:02.000160", "MEAN_MOTION": 15.51826058, "ECCENTRICITY": 0.0001184, "INCLINATION": 53.16, "RA_OF_ASC_NODE": 0.5712, "ARG_OF_PERICENTER": 73.4142, "MEAN_ANOMALY": 21.7295, "EPHEMERIS_TYPE": 0, "CLASSIFICATION_TYPE": "U", "NORAD_CAT_ID": 66881, "ELEMENT_SET_NO": 999, "REV_AT_EPOCH": 480, "BSTAR": -0.033238, "MEAN_MOTION_DOT": -0.01795271, "MEAN_MOTION_DDOT": 0}, "tle": {"line1": "1 66881U 25283D   25361.50002315 -.01795271  00000+0 -33238-1 0  9995", "line2": "2 66881  53.1600   0.5712 0001184  73.4142  21.7295 15.51826058  4805"}}, "geometry": {"type": "Point", "coordinates": [-168.65451804450484, -15.620867535189987]}}, {"type": "Feature", "properties": {"norad_id": 66882, "name": "STARLINK-35912", "group": "last-30-days", "lat": -17.117638102565234, "lon": -167.40714844519593, "alt_km": 417.92612166737035, "timestamp": "2025-12-27T18:38:02.204989+00:00", "meta": {"OBJECT_NAME": "STARLINK-35912", "OBJECT_ID": "2025-283E", "EPOCH": "2025-12-27T12:00:02.000160", "MEAN_MOTION": 15.51823765, "ECCENTRICITY": 0.0001452, "INCLINATION": 53.1598, "RA_OF_ASC_NODE": 0.5687, "ARG_OF_PERICENTER": 67.8744, "MEAN_ANOMALY": 29.1815, "EPHEMERIS_TYPE": 0, "CLASSIFICATION_TYPE": "U", "NORAD_CAT_ID": 66882, "ELEMENT_SET_NO": 999, "REV_AT_EPOCH": 480, "BSTAR": -0.032771, "MEAN_MOTION_DOT": -0.0177289, "MEAN_MOTION_DDOT": 0}, "tle": {"line1": "1 66882U 25283E   25361.50002315 -.01772890  00000+0 -32771-1 0  9999", "line2": "2 66882  53.1598   0.5687 0001452  67.8744  29.1815 15.51823765  4808"}}, "geometry": {"type": "Point", "coordinates": [-167.40714844519593, -17.117638102565234]}}, {"type": "Feature", "properties": {"norad_id": 66883, "name": "STARLINK-35947", "group": "last-30-days", "lat": -18.607863993275735, "lon": -166.13964678787, "alt_km": 418.0566004620041, "timestamp": "2025-12-27T18:38:02.205001+00:00", "meta": {"OBJECT_NAME": "STARLINK-35947", "OBJECT_ID": "2025-283F", "EPOCH": "2025-12-27T12:00:02.000160", "MEAN_MOTION": 15.51821822, "ECCENTRICITY": 0.0001541, "INCLINATION": 53.1598, "RA_OF_ASC_NODE": 0.5651, "ARG_OF_PERICENTER": 74.0696, "MEAN_ANOMALY": 24.9075, "EPHEMERIS_TYPE": 0, "CLASSIFICATION_TYPE": "U", "NORAD_CAT_ID": 66883, "ELEMENT_SET_NO": 999, "REV_AT_EPOCH": 485, "BSTAR": -0.032787, "MEAN_MOTION_DOT": -0.01773593, "MEAN_MOTION_DDOT": 0}, "tle": {"line1": "1 66883U 25283F   25361.50002315 -.01773593  00000+0 -32787-1 0  9998", "line2": "2 66883  53.1598   0.5651 0001541  74.0696  24.9075 15.51821822  4853"}}, "geometry": {"type": "Point", "coordinates": [-166.13964678787, -18.607863993275735]}}, {"type": "Feature", "properties": {"norad_id": 66884, "name": "STARLINK-36057", "group": "last-30-days", "lat": -21.551770981734546, "lon": -163.54525649562865, "alt_km": 418.38670454315525, "timestamp": "2025-12-27T18:38:02.205013+00:00", "meta": {"OBJECT_NAME": "STARLINK-36057", "OBJECT_ID": "2025-283G", "EPOCH": "2025-12-27T12:00:02.000160", "MEAN_MOTION": 15.5182132, "ECCENTRICITY": 0.0001379, "INCLINATION": 53.1595, "RA_OF_ASC_NODE": 0.5564, "ARG_OF_PERICENTER": 65.3807, "MEAN_ANOMALY": 37.4289, "EPHEMERIS_TYPE": 0, "CLASSIFICATION_TYPE": "U", "NORAD_CAT_ID": 66884, "ELEMENT_SET_NO": 999, "REV_AT_EPOCH": 480, "BSTAR": -0.032743, "MEAN_MOTION_DOT": -0.0177137, "MEAN_MOTION_DDOT": 0}, "tle": {"line1": "1 66884U 25283G   25361.50002315 -.01771370  00000+0 -32743-1 0  9992", "line2": "2 66884  53.1595   0.5564 0001379  65.3807  37.4289 15.51821320  4804"}}, "geometry": {"type": "Point", "coordinates": [-163.54525649562865, -21.551770981734546]}}, {"type": "Feature", "properties": {"norad_id": 66885, "name": "STARLINK-35954", "group": "last-30-days", "lat": -20.083444703341282, "lon": -164.85586171990522, "alt_km": 418.28301689687123, "timestamp": "2025-12-27T18:38:02.205025+00:00", "meta": {"OBJECT_NAME": "STARLINK-35954", "OBJECT_ID": "2025-283H", "EPOCH": "2025-12-27T12:00:02.000160", "MEAN_MOTION": 15.51825215, "ECCENTRICITY": 0.0001443, "INCLINATION": 53.1595, "RA_OF_ASC_NODE": 0.5605, "ARG_OF_PERICENTER": 64.7931, "MEAN_ANOMALY": 36.0984, "EPHEMERIS_TYPE": 0, "CLASSIFICATION_TYPE": "U", "NORAD_CAT_ID": 66885, "ELEMENT_SET_NO": 999, "REV_AT_EPOCH": 480, "BSTAR": -0.032896, "MEAN_MOTION_DOT": -0.01778979, "MEAN_MOTION_DDOT": 0}, "tle": {"line1": "1 66885U 25283H   25361.50002315 -.01778979  00000+0 -32896-1 0  9994", "line2": "2 66885  53.1595   0.5605 0001443  64.7931  36.0984 15.51825215  4808"}}, "geometry": {"type": "Point", "coordinates": [-164.85586171990522, -20.083444703341282]}}, {"type": "Feature", "properties": {"norad_id": 66886, "name": "STARLINK-35900", "group": "last-30-days", "lat": -23.012172662633546, "lon": -162.20578109063123, "alt_km": 418.5774106909266, "timestamp": "2025-12-27T18:38:02.205034+00:00", "meta": {"OBJECT_NAME": "STARLINK-35900", "OBJECT_ID": "2025-283J", "EPOCH": "2025-12-27T12:00:02.000160", "MEAN_MOTION": 15.51825508, "ECCENTRICITY": 0.0001522, "INCLINATION": 53.1597, "RA_OF_ASC_NODE": 0.5521, "ARG_OF_PERICENTER": 67.6634, "MEAN_ANOMALY": 37.0618, "EPHEMERIS_TYPE": 0, "CLASSIFICATION_TYPE": "U", "NORAD_CAT_ID": 66886, "ELEMENT_SET_NO": 999, "REV_AT_EPOCH": 480, "BSTAR": -0.032824, "MEAN_MOTION_DOT": -0.01775568, "MEAN_MOTION_DDOT": 0}, "tle": {"line1": "1 66886U 25283J   25361.50002315 -.01775568  00000+0 -32824-1 0  9997", "line2": "2 66886  53.1597   0.5521 0001522  67.6634  37.0618 15.51825508  4808"}}, "geometry": {"type": "Point", "coordinates": [-162.20578109063123, -23.012172662633546]}}, {"type": "Feature", "properties": {"norad_id": 66887, "name": "STARLINK-35925", "group": "last-30-days", "lat": -24.459787219110545, "lon": -160.83750274614607, "alt_km": 418.69372011110863, "timestamp": "2025-12-27T18:38:02.205046+00:00", "meta": {"OBJECT_NAME": "STARLINK-35925", "OBJECT_ID": "2025-283K", "EPOCH": "2025-12-27T12:00:02.000160", "MEAN_MOTION": 15.51827906, "ECCENTRICITY": 0.0001502, "INCLINATION": 53.1598, "RA_OF_ASC_NODE": 0.5484, "ARG_OF_PERICENTER": 68.6596, "MEAN_ANOMALY": 37.9831, "EPHEMERIS_TYPE": 0, "CLASSIFICATION_TYPE": "U", "NORAD_CAT_ID": 66887, "ELEMENT_SET_NO": 999, "REV_AT_EPOCH": 480, "BSTAR": -0.032913, "MEAN_MOTION_DOT": -0.01779947, "MEAN_MOTION_DDOT": 0}, "tle": {"line1": "1 66887U 25283K   25361.50002315 -.01779947  00000+0 -32913-1 0  9992", "line2": "2 66887  53.1598   0.5484 0001502  68.6596  37.9831 15.51827906  4804"}}, "geometry": {"type": "Point", "coordinates": [-160.83750274614607, -24.459787219110545]}}, {"type": "Feature", "properties": {"norad_id": 66888, "name": "STARLINK-35919", "group": "last-30-days", "lat": -25.89185724710148, "lon": -159.44102268721915, "alt_km": 418.863637782747, "timestamp": "2025-12-27T18:38:02.205056+00:00", "meta": {"OBJECT_NAME": "STARLINK-35919", "OBJECT_ID": "2025-283L", "EPOCH": "2025-12-27T12:00:02.000160", "MEAN_MOTION": 15.51823623, "ECCENTRICITY": 0.0001558, "INCLINATION": 53.1599, "RA_OF_ASC_NODE": 0.544, "ARG_OF_PERICENTER": 67.9975, "MEAN_ANOMALY": 40.5618, "EPHEMERIS_TYPE": 0, "CLASSIFICATION_TYPE": "U", "NORAD_CAT_ID": 66888, "ELEMENT_SET_NO": 999, "REV_AT_EPOCH": 480, "BSTAR": -0.032785, "MEAN_MOTION_DOT": -0.01773585, "MEAN_MOTION_DDOT": 0}, "tle": {"line1": "1 66888U 25283L   25361.50002315 -.01773585  00000+0 -32785-1 0  9992", "line2": "2 66888  53.1599   0.5440 0001558  67.9975  40.5618 15.51823623  4807"}}, "geometry": {"type": "Point", "coordinates": [-159.44102268721915, -25.89185724710148]}}, {"type": "Feature", "properties": {"norad_id": 66889, "name": "STARLINK-35852", "group": "last-30-days", "lat": -27.31107679215282, "lon": -158.00943157321925, "alt_km": 418.9445320468294, "timestamp": "2025-12-27T18:38:02.205066+00:00", "meta": {"OBJECT_NAME": "STARLINK-35852", "OBJECT_ID": "2025-283M", "EPOCH": "2025-12-27T12:00:02.000160", "MEAN_MOTION": 15.51824653, "ECCENTRICITY": 0.000146, "INCLINATION": 53.1601, "RA_OF_ASC_NODE": 0.5396, "ARG_OF_PERICENTER": 67.3644, "MEAN_ANOMALY": 43.1125, "EPHEMERIS_TYPE": 0, "CLASSIFICATION_TYPE": "U", "NORAD_CAT_ID": 66889, "ELEMENT_SET_NO": 999, "REV_AT_EPOCH": 480, "BSTAR": -0.032892, "MEAN_MOTION_DOT": -0.01778738, "MEAN_MOTION_DDOT": 0}, "tle": {"line1": "1 66889U 25283M   25361.50002315 -.01778738  00000+0 -32892-1 0  9997", "line2": "2 66889  53.1601   0.5396 0001460  67.3644  43.1125 15.51824653  4807"}}, "geometry": {"type": "Point", "coordinates": [-158.00943157321925, -27.31107679215282]}}]}